[{"OBJECT_NAME":"STARLINK-11099 [DTC]","OBJECT_ID":"2024-088J","EPOCH":"2026-03-09T22:48:37.323072","MEAN_MOTION":15.69724014,"ECCENTRICITY":0.00011756,"INCLINATION":53.1581,"RA_OF_ASC_NODE":324.9499,"ARG_OF_PERICENTER":124.4327,"MEAN_ANOMALY":235.6802,"EPHEMERIS_TYPE":0,"CLASSIFICATION_TYPE":"U","NORAD_CAT_ID":59716,"ELEMENT_SET_NO":999,"REV_AT_EPOCH":10631,"BSTAR":5.8223048e-5,"MEAN_MOTION_DOT":6.474e-5,"MEAN_MOTION_DDOT":0},{"OBJECT_NAME":"ISS OBJECT XT","OBJECT_ID":"1998-067XT","EPOCH":"2026-03-09T23:09:29.137248","MEAN_MOTION":15.69333449,"ECCENTRICITY":0.00047012,"INCLINATION":51.6253,"RA_OF_ASC_NODE":64.2319,"ARG_OF_PERICENTER":78.1098,"MEAN_ANOMALY":282.0426,"EPHEMERIS_TYPE":0,"CLASSIFICATION_TYPE":"U","NORAD_CAT_ID":66907,"ELEMENT_SET_NO":999,"REV_AT_EPOCH":1522,"BSTAR":0.0013746382,"MEAN_MOTION_DOT":0.00167047,"MEAN_MOTION_DDOT":0}]
